0 ARIANE 44L+ R/B
1 21941U 92021C   13282.70428549  .00011560  00000-0  19030-2 0  1402
2 21941 004.0346 287.5034 5562986 288.9846 181.1172 04.71689382262280
0 ARIANE 44L+ R/B
1 21941U 92021C   13283.66914171  .00018747  00000-0  29306-2 0  1422
2 21941 004.0369 286.4503 5565094 291.0382 019.5530 04.71708271262323
0 ARIANE 44L+ R/B
1 21941U 92021C   13286.00498242  .00011951  00000-0  19496-2 0  1440
2 21941 004.0298 284.0967 5563015 295.8255 026.3890 04.71772067262446
0 ARIANE 44L+ R/B
1 21941U 92021C   13288.13202142  .00014384  00000-0  23403-2 0  1455
2 21941 004.0266 281.8974 5562982 300.2450 039.0481 04.71836107262548
0 ARIANE 44L+ R/B
1 21941U 92021C   13289.20026414  .00014195  00000-0  23077-2 0  1468
2 21941 004.0250 280.7914 5562898 302.4584 053.5940 04.71870292262590
0 ARIANE 44L+ R/B
1 21941U 92021C   13289.98860601  .00014220  00000-0  23088-2 0  1479
2 21941 004.0239 279.9737 5562854 304.0961 312.7720 04.71891858262631
0 ARIANE 44L+ R/B
1 21941U 92021C   13290.54249277  .00014717  00000-0  23846-2 0  1487
2 21941 004.0230 279.3996 5562851 305.2402 173.7241 04.71904969262656
0 ARIANE 44L+ R/B
1 21941U 92021C   13291.09538395  .00013956  00000-0  22560-2 0  1497
2 21941 004.0221 278.8273 5562840 306.3945 032.9908 04.71924254262688
0 ARIANE 44L+ R/B
1 21941U 92021C   13292.16179010  .00014365  00000-0  23125-2 0  1506
2 21941 004.0203 277.7245 5562770 308.6062 044.7619 04.71953771262734
0 ARIANE 44L+ R/B
1 21941U 92021C   13292.99841752  .00014635  00000-0  23447-2 0  1514
2 21941 004.0190 276.8554 5562737 310.3499 026.2238 04.71979318262770
0 ARIANE 44L+ R/B
1 21941U 92021C   13293.72994727  .00014741  00000-0  23541-2 0  1521
2 21941 004.0178 276.0965 5562702 311.8594 189.2108 04.71995639262802
0 ARIANE 44L+ R/B
1 21941U 92021C   13295.50821424  .00014141  00000-0  22331-2 0  1533
2 21941 004.0151 274.2438 5562592 315.5732 330.9220 04.72059864262891
0 ARIANE 44L+ R/B
1 21941U 92021C   13296.21305306  .00013800  00000-0  21709-2 0  1548
2 21941 004.0138 273.5111 5562533 317.0460 088.7014 04.72084280262929
